QIANFAN-65              
1 62795U 25016L   25365.17248612  .00000154  00000+0  21979-3 0  9995
2 62795  88.9765 101.1553 0012152 290.1037  69.8806 13.50978320 49731
QIANFAN-66              
1 62796U 25016M   25365.12724843  .00000213  00000+0  31086-3 0  9992
2 62796  88.9785 101.1337 0013262 285.1841  74.7843 13.50983357 49770
QIANFAN-67              
1 62797U 25016N   25365.13144223  .00000200  00000+0  29189-3 0  9999
2 62797  88.9775 101.1571 0013227 293.0278  66.9478 13.50987486 49744
QIANFAN-68              
1 62798U 25016P   25365.19716897  .00000218  00000+0  31885-3 0  9993
2 62798  88.9778 101.1961 0013278 290.7905  69.1824 13.50989949 49733
QIANFAN-69              
1 62799U 25016Q   25365.06549557  .00000197  00000+0  28661-3 0  9991
2 62799  88.9757 101.0752 0014024 292.4976  67.4690 13.50992562 49754
QIANFAN-70              
1 62800U 25016R   25365.08204729  .00000214  00000+0  31248-3 0  9990
2 62800  88.9778 101.2159 0013645 281.5252  78.4367 13.50983542 49714
QIANFAN-71              
1 62801U 25016S   25365.07785280  .00000205  00000+0  29828-3 0  9997
2 62801  88.9772 101.1947 0013955 296.4294  63.5424 13.50982999 49712
QIANFAN-72              
1 62802U 25016T   25365.09430377  .00000199  00000+0  28991-3 0  9996
2 62802  88.9763 101.2045 0017258 304.1835  55.7680 13.50982843 49705
